[{"OBJECT_NAME":"STARLINK-1677","OBJECT_ID":"2020-070AW","EPOCH":"2026-03-10T00:00:02.999808","MEAN_MOTION":15.66056345,"ECCENTRICITY":0.00018366,"INCLINATION":53.0377,"RA_OF_ASC_NODE":122.7785,"ARG_OF_PERICENTER":67.8911,"MEAN_ANOMALY":286.0688,"EPHEMERIS_TYPE":0,"CLASSIFICATION_TYPE":"U","NORAD_CAT_ID":46576,"ELEMENT_SET_NO":999,"REV_AT_EPOCH":593,"BSTAR":0.00053660396,"MEAN_MOTION_DOT":0.00055829,"MEAN_MOTION_DDOT":0},{"OBJECT_NAME":"JILIN-1 GAOFEN 03D13","OBJECT_ID":"2022-019Y","EPOCH":"2026-03-09T22:29:05.103168","MEAN_MOTION":15.66086161,"ECCENTRICITY":0.00041625,"INCLINATION":97.3674,"RA_OF_ASC_NODE":159.1591,"ARG_OF_PERICENTER":171.5165,"MEAN_ANOMALY":188.6166,"EPHEMERIS_TYPE":0,"CLASSIFICATION_TYPE":"U","NORAD_CAT_ID":51846,"ELEMENT_SET_NO":999,"REV_AT_EPOCH":22427,"BSTAR":0.0010266873,"MEAN_MOTION_DOT":0.00106185,"MEAN_MOTION_DDOT":0}]
